2023-051A               
1 56172U 23051A   23123.51185100  .00047451  27563-5  37494-3 0  9993
2 56172  97.3320 197.3267 0145115 253.3683 235.5154 15.58792536  4100
INTELSAT 40E            
1 56174U 23052A   23122.60960898 -.00000186  00000+0  00000+0 0  9995
2 56174   0.0206 230.7898 0005539  74.5386  43.2759  1.00457673   389
FALCON 9 R/B            
1 56175U 23052B   23123.54296998  .00030766 -48228-6  12586-2 0  9996
2 56175  27.1090  84.1429 6974448 197.4379 114.4943  2.71694718   725
IMECE                   
1 56178U 23054A   23123.47780856  .00000558  00000+0  11055-3 0  9999
2 56178  98.2117  19.1778 0008894 148.8834 211.2870 14.66064717  3281
2023-054B               
1 56179U 23054B   23123.43730225  .00007841  00000+0  35436-3 0  9992
2 56179  97.4073  18.9823 0008684 183.8468 290.7441 15.21185555  3373
DEWASAT-2               
1 56180U 23054C   23123.21565014  .00010801  00000+0  48116-3 0  9991
2 56180  97.4138  18.7881 0010225 183.7687 176.3473 15.21570745  3323
KILICSAT                
1 56181U 23054D   23123.50126536  .00011939  00000+0  53142-3 0  9994
2 56181  97.4097  19.0619 0009548 179.4451 305.2027 15.21576889  3376
LEMUR-2-ONREFLECTION    
1 56182U 23054E   23123.21420813  .00013729  00000+0  60752-3 0  9992
2 56182  97.4030  18.7627 0008849 175.0421 185.0904 15.21749954  3330
2023-054F               
1 56183U 23054F   23123.54425841  .00008626  00000+0  38576-3 0  9994
2 56183  97.4055  19.0899 0008612 168.7509 191.3921 15.21513575  3389
SSS-2B                  
1 56184U 23054G   23122.88547392  .00011600  00000+0  51478-3 0  9999
2 56184  97.4164  18.4719 0010931 183.7218 176.3938 15.21674619  3283
BRO-9                   
1 56185U 23054H   23123.43208161  .00014391  00000+0  63648-3 0  9992
2 56185  97.4067  18.9855 0008649 173.7988 301.2562 15.21759895  3369
GHGSAT-C8               
1 56186U 23054J   23123.50092855  .00008975  00000+0  40078-3 0  9995
2 56186  97.4107  19.0647 0010068 178.3847 306.4990 15.21543232  3378
LEMUR-2-SPACEGUS        
1 56187U 23054K   23123.54114763  .00014121  00000+0  62177-3 0  9997
2 56187  97.4037  19.0884 0009034 165.4997 194.6500 15.21912545  3380
CIRBE                   
1 56188U 23054L   23123.21131709  .00012489  00000+0  54915-3 0  9997
2 56188  97.4115  18.7891 0010162 174.4886 185.6463 15.21979632  3336
2023-054M               
1 56189U 23054M   23123.14597587  .00007745  00000+0  34347-3 0  9996
2 56189  97.4130  18.7278 0010547 174.5217 185.6137 15.21822071  3320
2023-054N               
1 56190U 23054N   23123.53959141  .00009251  00000+0  40829-3 0  9995
2 56190  97.4062  19.0976 0010124 164.2134 195.9420 15.21933248  3384
HAWK-7A                 
1 56191U 23054P   23122.87994524  .00004506  00000+0  19928-3 0  9990
2 56191  97.4103  18.4739 0011153 169.9673 190.1788 15.22140088  3280
ION SCV-010             
1 56192U 23054Q   23123.21034374  .00005284  00000+0  23502-3 0  9995
2 56192  97.4095  18.7855 0010786 167.3915 192.7593 15.21869927  3332
HAWK-7B                 
1 56193U 23054R   23122.87865440  .00006041  00000+0  26448-3 0  9997
2 56193  97.4069  18.4479 0011864 160.7485 199.4201 15.22343182  3285
2023-054S               
1 56194U 23054S   23122.87916876  .00012767  00000+0  55700-3 0  9993
2 56194  97.4100  18.4664 0010977 168.4164 191.7326 15.22232895  3282
2023-054T               
1 56195U 23054T   23122.87990183  .00007336  00000+0  32314-3 0  9999
2 56195  97.4087  18.4593 0011356 165.2100 194.9470 15.22061388  3287
VIGORIDE-6              
1 56196U 23054U   23123.53387223  .00010422  00000+0  45259-3 0  9991
2 56196  97.4091  19.1160 0011913 167.7472 192.4057 15.22434240  3385
2023-054V               
1 56197U 23054V   23123.20585202  .00007189  00000+0  31438-3 0  9993
2 56197  97.4084  18.7864 0012214 165.9609 194.1969 15.22310810  3333
UMBRA-06                
1 56198U 23054W   23122.76378899  .00022819  00000+0  11780-2 0  9990
2 56198  97.4065  18.3056 0015613 141.2187 219.0169 15.16215578  3265
2023-054X               
1 56199U 23054X   23123.59887106  .00009513  00000+0  41286-3 0  9990
2 56199  97.4100  19.1833 0012284 166.7419 193.4143 15.22477328  3390
HAWK-7C                 
1 56200U 23054Y   23122.87811276  .00005293  00000+0  23480-3 0  9995
2 56200  97.4080  18.4599 0011639 163.0087 197.1541 15.21952431  3288
2023-054Z               
1 56201U 23054Z   23123.53159456  .00009641  00000+0  41665-3 0  9991
2 56201  97.4086  19.1151 0013058 165.9990 194.1611 15.22608652  3388
2023-054AA              
1 56202U 23054AA  23123.20278608  .00009300  00000+0  40188-3 0  9998
2 56202  97.4100  18.7968 0013107 167.0154 193.1423 15.22620858  3334
2023-054AB              
1 56203U 23054AB  23123.53113874  .00009822  00000+0  42388-3 0  9991
2 56203  97.4064  19.1090 0013203 162.6368 197.5322 15.22647518  3383
GHGSAT-C6               
1 56204U 23054AC  23123.48643579  .00009438  00000+0  40582-3 0  9993
2 56204  97.4125  19.0871 0013915 161.4384 324.1277 15.22776948  3379
2023-054AD              
1 56205U 23054AD  23123.26091763  .00007762  00000+0  32961-3 0  9992
2 56205  97.4121  18.8762 0015860 160.1122 200.0737 15.23237122  3346
LEMUR-2-ROMEO-N-LEO     
1 56206U 23054AE  23123.19574246  .00024143  00000+0  10075-2 0  9990
2 56206  97.4034  18.7855 0014348 159.3725 200.8094 15.23564725  3336
2023-054AF              
1 56207U 23054AF  23123.19626215  .00016167  00000+0  68086-3 0  9998
2 56207  97.4160  18.8212 0015222 165.3156 194.8526 15.23328070  3335
2023-054AG              
1 56208U 23054AG  23122.86952801  .00010271  00000+0  43824-3 0  9998
2 56208  97.4025  18.4582 0013979 156.3903 203.7979 15.23010691  3282
GHGSAT-C7               
1 56209U 23054AH  23123.48451709  .00004501  00000+0  19489-3 0  9998
2 56209  97.4092  19.0801 0014136 156.1152 328.5085 15.22831265  3379
CONNECTA T2.1           
1 56210U 23054AJ  23123.48312705  .00006235  00000+0  26742-3 0  9998
2 56210  97.4042  19.0701 0014715 155.1508 330.1752 15.22992264  3379
INSPIRE-SAT 7           
1 56211U 23054AK  23123.19488773  .00014443  00000+0  60720-3 0  9990
2 56211  97.4142  18.8177 0015649 162.8657 197.3111 15.23404977  3330
ROSEYCUBESAT-1          
1 56212U 23054AL  23123.19341730  .00015403  00000+0  64441-3 0  9993
2 56212  97.4149  18.8211 0016104 162.4045 197.7753 15.23548667  3332
2023-054AM              
1 56213U 23054AM  23123.19344643  .00014538  00000+0  60895-3 0  9997
2 56213  97.4068  18.7995 0015525 156.7787 203.4155 15.23529148  3330
LS3C                    
1 56214U 23054AN  23123.19292677  .00012949  00000+0  54245-3 0  9993
2 56214  97.4095  18.8074 0015999 158.2316 201.9604 15.23546291  3330
VCUB1                   
1 56215U 23054AP  23123.48974742  .00016053  00000+0  68479-3 0  9990
2 56215  97.4096  19.0757 0012353 149.4781 336.5066 15.22931046  3299
2023-054AQ              
1 56216U 23054AQ  23117.81962120  .00014346  00000+0  64482-3 0  9991
2 56216  97.4083  13.4739 0007855 176.8690 183.2596 15.21213273  2410
2023-054AR              
1 56217U 23054AR  23120.71080233  .00010389  00000+0  45446-3 0  9993
2 56217  97.4129  16.3309 0011865 179.7888 180.0869 15.22187599  2953
2023-054AS              
1 56218U 23054AS  23122.15920661  .00007055  00000+0  31519-3 0  9994
2 56218  97.4057  17.7419 0010214 165.1628 194.7278 15.21603760  3172
FENGYUN 3G              
1 56232U 23055A   23123.51030271  .00033179  00000+0  52750-3 0  9997
2 56232  49.9998 107.7881 0005449 355.8489  98.9099 15.52939864  2710
STARLINK-30096          
1 56286U 23056A   23123.40920221  .01126329  57769-3  30887-2 0  9993
2 56286  42.9996 117.9435 0003091 149.0618 211.0440 15.93263609  3458
STARLINK-30107          
1 56287U 23056B   23123.58334491 -.01264308  00000+0 -24475-1 0  9990
2 56287  43.0015 119.0292 0001316 280.5646 207.1437 15.49767503  2686
STARLINK-30106          
1 56288U 23056C   23123.58334491 -.01265229  00000+0 -24477-1 0  9996
2 56288  43.0016 119.0270 0001307 281.1276 207.4712 15.49787790  2689
STARLINK-30095          
1 56289U 23056D   23123.58334491  .00169769  00000+0  10029-2 0  9995
2 56289  43.0013 117.8223 0000877 224.9215  31.0204 15.76854409  2690
STARLINK-30103          
1 56290U 23056E   23123.58334491 -.01263896  00000+0 -24457-1 0  9995
2 56290  43.0017 119.0281 0001144 281.5993 206.5461 15.49779408  2682
STARLINK-30113          
1 56291U 23056F   23123.58334491 -.01263961  00000+0 -24442-1 0  9993
2 56291  43.0016 119.0258 0001251 271.6692 217.3774 15.49797369  2684
STARLINK-30098          
1 56292U 23056G   23123.58334491 -.01263891  00000+0 -24416-1 0  9997
2 56292  43.0017 119.0226 0001251 275.0366 215.3430 15.49825473  2682
STARLINK-30090          
1 56293U 23056H   23123.58334491 -.01261806  00000+0 -24381-1 0  9993
2 56293  43.0017 119.0242 0001242 280.3030 209.6317 15.49814792  2680
STARLINK-30049          
1 56294U 23056J   23123.25002315 -.00642840  00000+0 -92333-2 0  9998
2 56294  43.0013 120.8031 0001335 267.1138 230.1741 15.57432610  2637
STARLINK-30083          
1 56295U 23056K   23123.58334491  .00183861  00000+0  10612-2 0  9999
2 56295  43.0013 117.7970 0000995 213.8548  52.2939 15.77334669  2694
STARLINK-30089          
1 56296U 23056L   23123.58334491  .00381586  00000+0  19952-2 0  9990
2 56296  43.0008 117.7082 0001413 187.7883 113.7803 15.78983051  2699
STARLINK-30086          
1 56297U 23056M   23123.58334491 -.00722533  00000+0 -10631-1 0  9998
2 56297  43.0016 118.8274 0001385 262.5710 307.6628 15.57060690  2683
STARLINK-30109          
1 56298U 23056N   23123.58334491 -.00718423  00000+0 -10577-1 0  9991
2 56298  43.0017 118.8309 0001505 268.4397 300.5524 15.57029674  2688
STARLINK-30108          
1 56299U 23056P   23123.07111523  .00161808  00000+0  13226-2 0  9997
2 56299  43.0027 121.4981 0001290 254.7243 105.3482 15.69293232  2607
